#Pass ID: 20250129_212722_FENGYUN 3G
#Satellite: FENGYUN 3G
#Configuration: FENGYUN 3G
#Start time: 2025-01-29 21:27:27.640759

#LorettStation: 1.0.0 05.05.2024
#Station: Regia
#Location: 37.494653 lon 55.929028 lat
#TLE: 1 56232U 23055A   25028.91604282  .00050456  00000+0  80127-3 0  9992
#TLE: 2 56232  49.9953  66.4565 0019397 289.1109  70.7757 15.52581994101622

#Time	Az	El	Level	SNR
#Closed at: 2025-01-29 21:27:22.642720